{
    "links": {
        "self": "http://www.neowsapp.com/rest/v1/neo/54016310?api_key=iIulBulltgU6a56xZRHN4H3l9WmuAYTsLGpBGhQ2"
    },
    "id": "54016310",
    "neo_reference_id": "54016310",
    "name": "(2020 FY2)",
    "designation": "2020 FY2",
    "nasa_jpl_url": "http://ssd.jpl.nasa.gov/sbdb.cgi?sstr=54016310",
    "absolute_magnitude_h": 25.182,
    "estimated_diameter": {
        "kilometers": {
            "estimated_diameter_min": 0.0244430264,
            "estimated_diameter_max": 0.0546562686
        },
        "meters": {
            "estimated_diameter_min": 24.4430263872,
            "estimated_diameter_max": 54.6562685776
        },
        "miles": {
            "estimated_diameter_min": 0.0151881877,
            "estimated_diameter_max": 0.0339618203
        },
        "feet": {
            "estimated_diameter_min": 80.1936586921,
            "estimated_diameter_max": 179.3184722
        }
    },
    "is_potentially_hazardous_asteroid": false,
    "close_approach_data": [
        {
            "close_approach_date": "2020-03-18",
            "close_approach_date_full": "2020-Mar-18 02:36",
            "epoch_date_close_approach": 1584498960000,
            "relative_velocity": {
                "kilometers_per_second": "12.3109307152",
                "kilometers_per_hour": "44319.3505745767",
                "miles_per_hour": "27538.3209167419"
            },
            "miss_distance": {
                "astronomical": "0.0124158219",
                "lunar": "4.8297547191",
                "kilometers": "1857380.510539353",
                "miles": "1154122.7318669514"
            },
            "orbiting_body": "Earth"
        }
    ],
    "orbital_data": {
        "orbit_id": "4",
        "orbit_determination_date": "2020-03-27 05:58:56",
        "first_observation_date": "2020-03-22",
        "last_observation_date": "2020-03-27",
        "data_arc_in_days": 5,
        "observations_used": 67,
        "orbit_uncertainty": "8",
        "minimum_orbit_intersection": ".00891518",
        "jupiter_tisserand_invariant": "3.731",
        "epoch_osculation": "2458931.5",
        "eccentricity": ".5531589068183149",
        "semi_major_axis": "1.909815053881824",
        "inclination": "4.031350372615887",
        "ascending_node_longitude": "169.5202168895473",
        "orbital_period": "964.0185599191142",
        "perihelion_distance": ".8533838464513931",
        "perihelion_argument": "314.3773883363347",
        "aphelion_distance": "2.966246261312255",
        "perihelion_time": "2458888.484600435207",
        "mean_anomaly": "16.06353288947548",
        "mean_motion": ".3734367936133986",
        "equinox": "J2000",
        "orbit_class": {
            "orbit_class_type": "APO",
            "orbit_class_description": "Near-Earth asteroid orbits which cross the Earth’s orbit similar to that of 1862 Apollo",
            "orbit_class_range": "a (semi-major axis) > 1.0 AU; q (perihelion) < 1.017 AU"
        }
    },
    "is_sentry_object": false
}